[{"OBJECT_NAME":"ICESAT-2","OBJECT_ID":"2018-070A","EPOCH":"2026-03-09T22:54:12.225888","MEAN_MOTION":15.28328617,"ECCENTRICITY":0.00038245,"INCLINATION":91.9993,"RA_OF_ASC_NODE":264.2397,"ARG_OF_PERICENTER":123.8941,"MEAN_ANOMALY":236.2673,"EPHEMERIS_TYPE":0,"CLASSIFICATION_TYPE":"U","NORAD_CAT_ID":43613,"ELEMENT_SET_NO":999,"REV_AT_EPOCH":41730,"BSTAR":0.00014022643,"MEAN_MOTION_DOT":3.87e-5,"MEAN_MOTION_DDOT":0},{"OBJECT_NAME":"STARLINK-30757","OBJECT_ID":"2023-162P","EPOCH":"2026-03-09T22:00:01.999584","MEAN_MOTION":15.27592819,"ECCENTRICITY":0.00015385,"INCLINATION":43.0003,"RA_OF_ASC_NODE":127.8742,"ARG_OF_PERICENTER":261.5076,"MEAN_ANOMALY":359.8957,"EPHEMERIS_TYPE":0,"CLASSIFICATION_TYPE":"U","NORAD_CAT_ID":58131,"ELEMENT_SET_NO":999,"REV_AT_EPOCH":578,"BSTAR":-0.0004740863,"MEAN_MOTION_DOT":-0.0001329,"MEAN_MOTION_DDOT":0}]
